{
  "type": "FeatureCollection",
  "features": [
    {
      "type": "Feature",
      "properties": {
        "norad_id": 37836,
        "name": "EUTELSAT 16A",
        "group": "eutelsat",
        "lat": -0.05731002524532866,
        "lon": -53.914873278701876,
        "alt_km": 35764.23410505926,
        "timestamp": "2025-12-27T12:55:14.158580+00:00",
        "meta_object_name": "EUTELSAT 16A",
        "meta_object_id": "2011-057A",
        "meta_epoch": "2025-12-27T06:13:44.235264",
        "meta_mean_motion": 1.00272018,
        "meta_eccentricity": 0.00058191,
        "meta_inclination": 0.0553,
        "meta_ra_of_asc_node": 354.7485,
        "meta_arg_of_pericenter": 283.4184,
        "meta_mean_anomaly": 287.2446,
        "meta_ephemeris_type": 0,
        "meta_classification_type": "U",
        "meta_norad_cat_id": 37836,
        "meta_element_set_no": 999,
        "meta_rev_at_epoch": 560,
        "meta_bstar": 0,
        "meta_mean_motion_dot": 1.26e-06,
        "meta_mean_motion_ddot": 0,
        "tle_line1": "1 37836U 11057A   25361.25953976  .00000126  00000+0  00000+0 0  9991",
        "tle_line2": "2 37836   0.0553 354.7485 0005819 283.4184 287.2446  1.00272018  5606"
      },
      "geometry": {
        "type": "Point",
        "coordinates": [
          -53.914873278701876,
          -0.05731002524532866
        ]
      }
    },
    {
      "type": "Feature",
      "properties": {
        "norad_id": 38992,
        "name": "EUTELSAT 21B",
        "group": "eutelsat",
        "lat": -0.05901397481540849,
        "lon": -48.3344749943165,
        "alt_km": 35774.05957544982,
        "timestamp": "2025-12-27T12:55:14.158592+00:00",
        "meta_object_name": "EUTELSAT 21B",
        "meta_object_id": "2012-062B",
        "meta_epoch": "2025-12-27T04:32:38.916384",
        "meta_mean_motion": 1.00272057,
        "meta_eccentricity": 0.0003231,
        "meta_inclination": 0.065,
        "meta_ra_of_asc_node": 354.5357,
        "meta_arg_of_pericenter": 287.7801,
        "meta_mean_anomaly": 263.3477,
        "meta_ephemeris_type": 0,
        "meta_classification_type": "U",
        "meta_norad_cat_id": 38992,
        "meta_element_set_no": 999,
        "meta_rev_at_epoch": 4810,
        "meta_bstar": 0,
        "meta_mean_motion_dot": 1.52e-06,
        "meta_mean_motion_ddot": 0,
        "tle_line1": "1 38992U 12062B   25361.18933931  .00000152  00000+0  00000+0 0  9992",
        "tle_line2": "2 38992   0.0650 354.5357 0003231 287.7801 263.3477  1.00272057 48107"
      },
      "geometry": {
        "type": "Point",
        "coordinates": [
          -48.3344749943165,
          -0.05901397481540849
        ]
      }
    },
    {
      "type": "Feature",
      "properties": {
        "norad_id": 39020,
        "name": "EUTELSAT 70B",
        "group": "eutelsat",
        "lat": 0.0074031915176941444,
        "lon": 0.6060305228461068,
        "alt_km": 35790.26020000208,
        "timestamp": "2025-12-27T12:55:14.158605+00:00",
        "meta_object_name": "EUTELSAT 70B",
        "meta_object_id": "2012-069A",
        "meta_epoch": "2025-12-27T04:46:37.577856",
        "meta_mean_motion": 1.00271041,
        "meta_eccentricity": 0.00041619,
        "meta_inclination": 0.0609,
        "meta_ra_of_asc_node": 352.5542,
        "meta_arg_of_pericenter": 264.8398,
        "meta_mean_anomaly": 340.687,
        "meta_ephemeris_type": 0,
        "meta_classification_type": "U",
        "meta_norad_cat_id": 39020,
        "meta_element_set_no": 999,
        "meta_rev_at_epoch": 4778,
        "meta_bstar": 0,
        "meta_mean_motion_dot": -2.1e-07,
        "meta_mean_motion_ddot": 0,
        "tle_line1": "1 39020U 12069A   25361.19904604 -.00000021  00000+0  00000+0 0  9994",
        "tle_line2": "2 39020   0.0609 352.5542 0004161 264.8398 340.6870  1.00271041 47789"
      },
      "geometry": {
        "type": "Point",
        "coordinates": [
          0.6060305228461068,
          0.0074031915176941444
        ]
      }
    },
    {
      "type": "Feature",
      "properties": {
        "norad_id": 39122,
        "name": "EUTELSAT 117 WEST A",
        "group": "eutelsat",
        "lat": -0.003190454476163423,
        "lon": 173.23546051076647,
        "alt_km": 35789.78995271537,
        "timestamp": "2025-12-27T12:55:14.158618+00:00",
        "meta_object_name": "EUTELSAT 117 WEST A",
        "meta_object_id": "2013-012A",
        "meta_epoch": "2025-12-27T05:35:55.354848",
        "meta_mean_motion": 1.00270818,
        "meta_eccentricity": 0.00028782,
        "meta_inclination": 0.0142,
        "meta_ra_of_asc_node": 335.025,
        "meta_arg_of_pericenter": 304.6953,
        "meta_mean_anomaly": 143.4263,
        "meta_ephemeris_type": 0,
        "meta_classification_type": "U",
        "meta_norad_cat_id": 39122,
        "meta_element_set_no": 999,
        "meta_rev_at_epoch": 4670,
        "meta_bstar": 0,
        "meta_mean_motion_dot": 1e-07,
        "meta_mean_motion_ddot": 0,
        "tle_line1": "1 39122U 13012A   25361.23327957  .00000010  00000+0  00000+0 0  9998",
        "tle_line2": "2 39122   0.0142 335.0250 0002878 304.6953 143.4263  1.00270818 46706"
      },
      "geometry": {
        "type": "Point",
        "coordinates": [
          173.23546051076647,
          -0.003190454476163423
        ]
      }
    },
    {
      "type": "Feature",
      "properties": {
        "norad_id": 39163,
        "name": "EUTELSAT 7B",
        "group": "eutelsat",
        "lat": -0.08348929086348983,
        "lon": -62.95932794162623,
        "alt_km": 35767.74067697866,
        "timestamp": "2025-12-27T12:55:14.158631+00:00",
        "meta_object_name": "EUTELSAT 7B",
        "meta_object_id": "2013-022A",
        "meta_epoch": "2025-12-27T06:13:38.544960",
        "meta_mean_motion": 1.0027195,
        "meta_eccentricity": 0.00047877,
        "meta_inclination": 0.0674,
        "meta_ra_of_asc_node": 13.757,
        "meta_arg_of_pericenter": 308.486,
        "meta_mean_anomaly": 234.1547,
        "meta_ephemeris_type": 0,
        "meta_classification_type": "U",
        "meta_norad_cat_id": 39163,
        "meta_element_set_no": 999,
        "meta_rev_at_epoch": 4622,
        "meta_bstar": 0,
        "meta_mean_motion_dot": 7e-07,
        "meta_mean_motion_ddot": 0,
        "tle_line1": "1 39163U 13022A   25361.25947390  .00000070  00000+0  00000+0 0  9991",
        "tle_line2": "2 39163   0.0674  13.7570 0004787 308.4860 234.1547  1.00271950 46224"
      },
      "geometry": {
        "type": "Point",
        "coordinates": [
          -62.95932794162623,
          -0.08348929086348983
        ]
      }
    },
    {
      "type": "Feature",
      "properties": {
        "norad_id": 39612,
        "name": "EXPRESS-AT1",
        "group": "eutelsat",
        "lat": 0.005763908342391183,
        "lon": -13.935389331149862,
        "alt_km": 35789.19438219899,
        "timestamp": "2025-12-27T12:55:14.158643+00:00",
        "meta_object_name": "EXPRESS-AT1",
        "meta_object_id": "2014-010A",
        "meta_epoch": "2025-12-27T04:42:15.496416",
        "meta_mean_motion": 1.002729,
        "meta_eccentricity": 8.928e-05,
        "meta_inclination": 0.0153,
        "meta_ra_of_asc_node": 289.8864,
        "meta_arg_of_pericenter": 213.189,
        "meta_mean_anomaly": 79.4173,
        "meta_ephemeris_type": 0,
        "meta_classification_type": "U",
        "meta_norad_cat_id": 39612,
        "meta_element_set_no": 999,
        "meta_rev_at_epoch": 4309,
        "meta_bstar": 0,
        "meta_mean_motion_dot": 1.01e-06,
        "meta_mean_motion_ddot": 0,
        "tle_line1": "1 39612U 14010A   25361.19601269  .00000101  00000+0  00000+0 0  9998",
        "tle_line2": "2 39612   0.0153 289.8864 0000892 213.1890  79.4173  1.00272900 43098"
      },
      "geometry": {
        "type": "Point",
        "coordinates": [
          -13.935389331149862,
          0.005763908342391183
        ]
      }
    },
    {
      "type": "Feature",
      "properties": {
        "norad_id": 39613,
        "name": "EXPRESS-AT2",
        "group": "eutelsat",
        "lat": 0.03225780317893505,
        "lon": 69.93667110060666,
        "alt_km": 35792.82118194914,
        "timestamp": "2025-12-27T12:55:14.158665+00:00",
        "meta_object_name": "EXPRESS-AT2",
        "meta_object_id": "2014-010B",
        "meta_epoch": "2025-12-27T06:49:10.839936",
        "meta_mean_motion": 1.00270775,
        "meta_eccentricity": 0.00017046,
        "meta_inclination": 0.0178,
        "meta_ra_of_asc_node": 328.3157,
        "meta_arg_of_pericenter": 308.5849,
        "meta_mean_anomaly": 61.2712,
        "meta_ephemeris_type": 0,
        "meta_classification_type": "U",
        "meta_norad_cat_id": 39613,
        "meta_element_set_no": 999,
        "meta_rev_at_epoch": 4277,
        "meta_bstar": 0,
        "meta_mean_motion_dot": -2.59e-06,
        "meta_mean_motion_ddot": 0,
        "tle_line1": "1 39613U 14010B   25361.28415324 -.00000259  00000+0  00000+0 0  9999",
        "tle_line2": "2 39613   0.0178 328.3157 0001704 308.5849  61.2712  1.00270775 42776"
      },
      "geometry": {
        "type": "Point",
        "coordinates": [
          69.93667110060666,
          0.03225780317893505
        ]
      }
    }
  ]
}